CTC2_L_00331001-01
1 10000U 22515NI  26075.70045139  .00000000  00000+0  00000-0 0  9994
2 10000  65.0000   0.0000 0000000   0.0000   0.0000 13.56072486    17
CTC2_L_00331001-02
1 10001U 25524MH  26075.70045139  .00000000  00000+0  00000-0 0  9998
2 10001  65.0000   0.0000 0000000   0.0000  90.0000 13.56072486    17
CTC2_L_00331001-03
1 10002U 24302EU  26075.70045139  .00000000  00000+0  00000-0 0  9992
2 10002  65.0000   0.0000 0000000   0.0000 180.0000 13.56072486    18
CTC2_L_00331001-04
1 10003U 25192NI  26075.70045139  .00000000  00000+0  00000-0 0  9991
2 10003  65.0000   0.0000 0000000   0.0000 270.0000 13.56072486    19
CTC2_L_00331002-01
1 10004U 23522LO  26075.70045139  .00000000  00000+0  00000-0 0  9997
2 10004  65.0000  12.0000 0000000   0.0000  12.0000 13.56072486    17
CTC2_L_00331002-02
1 10005U 24934DZ  26075.70045139  .00000000  00000+0  00000-0 0  9996
2 10005  65.0000  12.0000 0000000   0.0000 102.0000 13.56072486    18
CTC2_L_00331002-03
1 10006U 25037DX  26075.70045139  .00000000  00000+0  00000-0 0  9992
2 10006  65.0000  12.0000 0000000   0.0000 192.0000 13.56072486    18
CTC2_L_00331002-04
1 10007U 22924UM  26075.70045139  .00000000  00000+0  00000-0 0  9995
2 10007  65.0000  12.0000 0000000   0.0000 282.0000 13.56072486    19
CTC2_L_00331003-01
1 10008U 24215PZ  26075.70045139  .00000000  00000+0  00000-0 0  9991
2 10008  65.0000  24.0000 0000000   0.0000  24.0000 13.56072486    17
CTC2_L_00331003-02
1 10009U 22255NI  26075.70045139  .00000000  00000+0  00000-0 0  9994
2 10009  65.0000  24.0000 0000000   0.0000 114.0000 13.56072486    18
CTC2_L_00331003-03
1 10010U 24391VK  26075.70045139  .00000000  00000+0  00000-0 0  9999
2 10010  65.0000  24.0000 0000000   0.0000 204.0000 13.56072486    10
CTC2_L_00331003-04
1 10011U 23798EY  26075.70045139  .00000000  00000+0  00000-0 0  9990
2 10011  65.0000  24.0000 0000000   0.0000 294.0000 13.56072486    10
CTC2_L_00331004-01
1 10012U 26474HJ  26075.70045139  .00000000  00000+0  00000-0 0  9995
2 10012  65.0000  36.0000 0000000   0.0000  36.0000 13.56072486    18
CTC2_L_00331004-02
1 10013U 26418WO  26075.70045139  .00000000  00000+0  00000-0 0  9994
2 10013  65.0000  36.0000 0000000   0.0000 126.0000 13.56072486    19
CTC2_L_00331004-03
1 10014U 22113FC  26075.70045139  .00000000  00000+0  00000-0 0  9993
2 10014  65.0000  36.0000 0000000   0.0000 216.0000 13.56072486    10
CTC2_L_00331004-04
1 10015U 26574NQ  26075.70045139  .00000000  00000+0  00000-0 0  9999
2 10015  65.0000  36.0000 0000000   0.0000 306.0000 13.56072486    11
CTC2_L_00331005-01
1 10016U 24858SG  26075.70045139  .00000000  00000+0  00000-0 0  9993
2 10016  65.0000  48.0000 0000000   0.0000  48.0000 13.56072486    18
CTC2_L_00331005-02
1 10017U 23531TH  26075.70045139  .00000000  00000+0  00000-0 0  9991
2 10017  65.0000  48.0000 0000000   0.0000 138.0000 13.56072486    19
CTC2_L_00331005-03
1 10018U 24956TT  26075.70045139  .00000000  00000+0  00000-0 0  9994
2 10018  65.0000  48.0000 0000000   0.0000 228.0000 13.56072486    10
CTC2_L_00331005-04
1 10019U 26271GG  26075.70045139  .00000000  00000+0  00000-0 0  9997
2 10019  65.0000  48.0000 0000000   0.0000 318.0000 13.56072486    11
CTC2_L_00331006-01
1 10020U 26057JN  26075.70045139  .00000000  00000+0  00000-0 0  9991
2 10020  65.0000  60.0000 0000000   0.0000  60.0000 13.56072486    11
CTC2_L_00331006-02
1 10021U 23677QN  26075.70045139  .00000000  00000+0  00000-0 0  9997
2 10021  65.0000  60.0000 0000000   0.0000 150.0000 13.56072486    12
CTC2_L_00331006-03
1 10022U 26658QB  26075.70045139  .00000000  00000+0  00000-0 0  9990
2 10022  65.0000  60.0000 0000000   0.0000 240.0000 13.56072486    13
CTC2_L_00331006-04
1 10023U 22813EJ  26075.70045139  .00000000  00000+0  00000-0 0  9990
2 10023  65.0000  60.0000 0000000   0.0000 330.0000 13.56072486    14
CTC2_L_00331007-01
1 10024U 26229XI  26075.70045139  .00000000  00000+0  00000-0 0  9996
2 10024  65.0000  72.0000 0000000   0.0000  72.0000 13.56072486    11
CTC2_L_00331007-02
1 10025U 25114IV  26075.70045139  .00000000  00000+0  00000-0 0  9999
2 10025  65.0000  72.0000 0000000   0.0000 162.0000 13.56072486    12
CTC2_L_00331007-03
1 10026U 22720RF  26075.70045139  .00000000  00000+0  00000-0 0  9990
2 10026  65.0000  72.0000 0000000   0.0000 252.0000 13.56072486    13
CTC2_L_00331007-04
1 10027U 24756BX  26075.70045139  .00000000  00000+0  00000-0 0  9992
2 10027  65.0000  72.0000 0000000   0.0000 342.0000 13.56072486    14
CTC2_L_00331008-01
1 10028U 26262EU  26075.70045139  .00000000  00000+0  00000-0 0  9997
2 10028  65.0000  84.0000 0000000   0.0000  84.0000 13.56072486    11
CTC2_L_00331008-02
1 10029U 26278TQ  26075.70045139  .00000000  00000+0  00000-0 0  9995
2 10029  65.0000  84.0000 0000000   0.0000 174.0000 13.56072486    12
CTC2_L_00331008-03
1 10030U 23539GD  26075.70045139  .00000000  00000+0  00000-0 0  9994
2 10030  65.0000  84.0000 0000000   0.0000 264.0000 13.56072486    14
CTC2_L_00331008-04
1 10031U 24006HO  26075.70045139  .00000000  00000+0  00000-0 0  9995
2 10031  65.0000  84.0000 0000000   0.0000 354.0000 13.56072486    15
CTC2_L_00331009-01
1 10032U 24540OF  26075.70045139  .00000000  00000+0  00000-0 0  9999
2 10032  65.0000  96.0000 0000000   0.0000  96.0000 13.56072486    12
CTC2_L_00331009-02
1 10033U 26194XX  26075.70045139  .00000000  00000+0  00000-0 0  9997
2 10033  65.0000  96.0000 0000000   0.0000 186.0000 13.56072486    13
CTC2_L_00331009-03
1 10034U 23816ON  26075.70045139  .00000000  00000+0  00000-0 0  9996
2 10034  65.0000  96.0000 0000000   0.0000 276.0000 13.56072486    14
CTC2_L_00331009-04
1 10035U 26494PM  26075.70045139  .00000000  00000+0  00000-0 0  9992
2 10035  65.0000  96.0000 0000000   0.0000   6.0000 13.56072486    16
CTC2_L_00331010-01
1 10036U 25122O   26075.70045139  .00000000  00000+0  00000-0 0  9990
2 10036  65.0000 108.0000 0000000   0.0000 108.0000 13.56072486    14
CTC2_L_00331010-02
1 10037U 25397GS  26075.70045139  .00000000  00000+0  00000-0 0  9995
2 10037  65.0000 108.0000 0000000   0.0000 198.0000 13.56072486    14
CTC2_L_00331010-03
1 10038U 24496QD  26075.70045139  .00000000  00000+0  00000-0 0  9995
2 10038  65.0000 108.0000 0000000   0.0000 288.0000 13.56072486    15
CTC2_L_00331010-04
1 10039U 24305EA  26075.70045139  .00000000  00000+0  00000-0 0  9995
2 10039  65.0000 108.0000 0000000   0.0000  18.0000 13.56072486    17
CTC2_L_00331011-01
1 10040U 26425UU  26075.70045139  .00000000  00000+0  00000-0 0  9992
2 10040  65.0000 120.0000 0000000   0.0000 120.0000 13.56072486    17
CTC2_L_00331011-02
1 10041U 26331NT  26075.70045139  .00000000  00000+0  00000-0 0  9999
2 10041  65.0000 120.0000 0000000   0.0000 210.0000 13.56072486    18
CTC2_L_00331011-03
1 10042U 22639DI  26075.70045139  .00000000  00000+0  00000-0 0  9997
2 10042  65.0000 120.0000 0000000   0.0000 300.0000 13.56072486    19
CTC2_L_00331011-04
1 10043U 24105WW  26075.70045139  .00000000  00000+0  00000-0 0  9998
2 10043  65.0000 120.0000 0000000   0.0000  30.0000 13.56072486    10
CTC2_L_00331012-01
1 10044U 22925HT  26075.70045139  .00000000  00000+0  00000-0 0  9997
2 10044  65.0000 132.0000 0000000   0.0000 132.0000 13.56072486    17
CTC2_L_00331012-02
1 10045U 25171EH  26075.70045139  .00000000  00000+0  00000-0 0  9994
2 10045  65.0000 132.0000 0000000   0.0000 222.0000 13.56072486    18
CTC2_L_00331012-03
1 10046U 22185UQ  26075.70045139  .00000000  00000+0  00000-0 0  9997
2 10046  65.0000 132.0000 0000000   0.0000 312.0000 13.56072486    19
CTC2_L_00331012-04
1 10047U 26308WG  26075.70045139  .00000000  00000+0  00000-0 0  9999
2 10047  65.0000 132.0000 0000000   0.0000  42.0000 13.56072486    10
CTC2_L_00331013-01
1 10048U 24236YT  26075.70045139  .00000000  00000+0  00000-0 0  9998
2 10048  65.0000 144.0000 0000000   0.0000 144.0000 13.56072486    17
CTC2_L_00331013-02
1 10049U 25173YA  26075.70045139  .00000000  00000+0  00000-0 0  9990
2 10049  65.0000 144.0000 0000000   0.0000 234.0000 13.56072486    18
CTC2_L_00331013-03
1 10050U 22268IU  26075.70045139  .00000000  00000+0  00000-0 0  9994
2 10050  65.0000 144.0000 0000000   0.0000 324.0000 13.56072486    10
CTC2_L_00331013-04
1 10051U 24114YY  26075.70045139  .00000000  00000+0  00000-0 0  9997
2 10051  65.0000 144.0000 0000000   0.0000  54.0000 13.56072486    11
CTC2_L_00331014-01
1 10052U 22304YP  26075.70045139  .00000000  00000+0  00000-0 0  9997
2 10052  65.0000 156.0000 0000000   0.0000 156.0000 13.56072486    18
CTC2_L_00331014-02
1 10053U 22711RA  26075.70045139  .00000000  00000+0  00000-0 0  9990
2 10053  65.0000 156.0000 0000000   0.0000 246.0000 13.56072486    19
CTC2_L_00331014-03
1 10054U 22080EC  26075.70045139  .00000000  00000+0  00000-0 0  9990
2 10054  65.0000 156.0000 0000000   0.0000 336.0000 13.56072486    10
CTC2_L_00331014-04
1 10055U 22360KP  26075.70045139  .00000000  00000+0  00000-0 0  9992
2 10055  65.0000 156.0000 0000000   0.0000  66.0000 13.56072486    11
CTC2_L_00331015-01
1 10056U 24190JU  26075.70045139  .00000000  00000+0  00000-0 0  9996
2 10056  65.0000 168.0000 0000000   0.0000 168.0000 13.56072486    18
CTC2_L_00331015-02
1 10057U 22971QZ  26075.70045139  .00000000  00000+0  00000-0 0  9992
2 10057  65.0000 168.0000 0000000   0.0000 258.0000 13.56072486    19
CTC2_L_00331015-03
1 10058U 23096CA  26075.70045139  .00000000  00000+0  00000-0 0  9992
2 10058  65.0000 168.0000 0000000   0.0000 348.0000 13.56072486    10
CTC2_L_00331015-04
1 10059U 23913BI  26075.70045139  .00000000  00000+0  00000-0 0  9991
2 10059  65.0000 168.0000 0000000   0.0000  78.0000 13.56072486    11
CTC2_L_00331016-01
1 10060U 25493QO  26075.70045139  .00000000  00000+0  00000-0 0  9998
2 10060  65.0000 180.0000 0000000   0.0000 180.0000 13.56072486    11
CTC2_L_00331016-02
1 10061U 25571OC  26075.70045139  .00000000  00000+0  00000-0 0  9996
2 10061  65.0000 180.0000 0000000   0.0000 270.0000 13.56072486    12
